CCSDS_OEM_VERS = 1.0
CREATION_DATE  = 2017-05-11T11:33:52
ORIGINATOR     = GMAT USER

META_START
OBJECT_NAME          = MOPSSat_alt_35785_km_RAAN_180_049
OBJECT_ID            = SatId
CENTER_NAME          = Earth
REF_FRAME            = EME2000
TIME_SYSTEM          = UTC
START_TIME           = 2017-01-01T00:00:00.000
USEABLE_START_TIME   = 2017-01-01T00:00:00.000
USEABLE_STOP_TIME    = 2017-01-02T00:00:00.000
STOP_TIME            = 2017-01-02T00:00:00.000
INTERPOLATION        = Lagrange
INTERPOLATION_DEGREE = 7 
META_STOP


                                                                                   

2017-01-01T00:18:20.000  -4.202842030552045e+04  -3.377989351174787e+03   5.896428402593197e+01   2.463756564989436e-01  -3.064307211289695e+00   5.348991820755843e-02
2017-01-01T00:18:30.000  -4.202594537425110e+04  -3.408631522752079e+03   5.949916758311333e+01   2.486105659196356e-01  -3.064126712978007e+00   5.348678639563106e-02
2017-01-01T00:18:40.000  -4.202344809457241e+04  -3.439271880881164e+03   6.003401967427422e+01   2.508453431609374e-01  -3.063944585264276e+00   5.348362611392083e-02
2017-01-01T00:18:50.000  -4.202092846781013e+04  -3.469910409302345e+03   6.056884001531581e+01   2.530799870370774e-01  -3.063760828245208e+00   5.348043736409598e-02
2017-01-01T00:19:00.000  -4.201838649530329e+04  -3.500547091735334e+03   6.110362832177969e+01   2.553144963607829e-01  -3.063575442018472e+00   5.347722014784161e-02
2017-01-01T00:19:10.000  -4.201582217839712e+04  -3.531181911972406e+03   6.163838431047385e+01   2.575488699500735e-01  -3.063388426682200e+00   5.347397446685091e-02
2017-01-01T00:19:20.000  -4.201323551844464e+04  -3.561814853842200e+03   6.217310769884100e+01   2.597831066256210e-01  -3.063199782335081e+00   5.347070032282693e-02
2017-01-01T00:19:30.000  -4.201062651680926e+04  -3.592445901192692e+03   6.270779820466094e+01   2.620172052095081e-01  -3.063009509076567e+00   5.346739771748594e-02
2017-01-01T00:19:40.000  -4.200799517486789e+04  -3.623075037854544e+03   6.324245554541127e+01   2.642511645225543e-01  -3.062817607007092e+00   5.346406665256150e-02
2017-01-01T00:19:50.000  -4.200534149401117e+04  -3.653702247623853e+03   6.377707943796597e+01   2.664849833830585e-01  -3.062624076228089e+00   5.346070712980449e-02
2017-01-01T00:20:00.000  -4.200266547564806e+04  -3.684327514226245e+03   6.431166959796866e+01   2.687186606041800e-01  -3.062428916842331e+00   5.345731915098931e-02
2017-01-01T00:20:10.000  -4.199996712119718e+04  -3.714950821409858e+03   6.484622574145575e+01   2.709521950007198e-01  -3.062232128953293e+00   5.345390271790242e-02
2017-01-01T00:20:20.000  -4.199724643212446e+04  -3.745572152542044e+03   6.538074757781654e+01   2.731855853597062e-01  -3.062033712667899e+00   5.345045783239052e-02
2017-01-01T00:20:30.000  -4.199450340989797e+04  -3.776191491098151e+03   6.591523481832515e+01   2.754188304760443e-01  -3.061833668093227e+00   5.344698449630299e-02
2017-01-01T00:20:40.000  -4.199173805600445e+04  -3.806808820479751e+03   6.644968717296787e+01   2.776519291392585e-01  -3.061631995337720e+00   5.344348271151293e-02
2017-01-01T00:20:50.000  -4.198895037188594e+04  -3.837424124718940e+03   6.698410436273703e+01   2.798848801848614e-01  -3.061428694506559e+00   5.343995247983704e-02
2017-01-01T00:21:00.000  -4.198614035900282e+04  -3.868037387775818e+03   6.751848610736808e+01   2.821176824431142e-01  -3.061223765706261e+00   5.343639380311524e-02
2017-01-01T00:21:10.000  -4.198330801881992e+04  -3.898648593697726e+03   6.805283212811895e+01   2.843503347506410e-01  -3.061017209043669e+00   5.343280668319322e-02
2017-01-01T00:21:20.000  -4.198045335284009e+04  -3.929257726222498e+03   6.858714214084502e+01   2.865828359214925e-01  -3.060809024628395e+00   5.342919112196492e-02
2017-01-01T00:21:30.000  -4.197757636258021e+04  -3.959864769073123e+03   6.912141586114198e+01   2.888151847686361e-01  -3.060599212571079e+00   5.342554712134211e-02
2017-01-01T00:21:40.000  -4.197467704956987e+04  -3.990469705957619e+03   6.965565300434425e+01   2.910473801039482e-01  -3.060387772983281e+00   5.342187468325274e-02
2017-01-01T00:21:50.000  -4.197175541538226e+04  -4.021072520275054e+03   7.018985328039290e+01   2.932794207167710e-01  -3.060174705979745e+00   5.341817380968013e-02
2017-01-01T00:22:00.000  -4.196881146159376e+04  -4.051673195511662e+03   7.072401640075039e+01   2.955113054028047e-01  -3.059960011675446e+00   5.341444450261168e-02
2017-01-01T00:22:10.000  -4.196584518979958e+04  -4.082271715084764e+03   7.125814207567615e+01   2.977430329527237e-01  -3.059743690186727e+00   5.341068676405872e-02
2017-01-01T00:22:20.000  -4.196285660154672e+04  -4.112868063033309e+03   7.179223002628028e+01   2.999746022025405e-01  -3.059525741626426e+00   5.340690059597174e-02
2017-01-01T00:22:30.000  -4.195984569840084e+04  -4.143462223327325e+03   7.232627997246986e+01   3.022060119832417e-01  -3.059306166108730e+00   5.340308600032479e-02
2017-01-01T00:22:40.000  -4.195681248193145e+04  -4.174054180024107e+03   7.286029163567497e+01   3.044372611321787e-01  -3.059084963748112e+00   5.339924297909695e-02
2017-01-01T00:22:50.000  -4.195375695374810e+04  -4.204643916871712e+03   7.339426473192748e+01   3.066683484641483e-01  -3.058862134661960e+00   5.339537153431815e-02
2017-01-01T00:23:00.000  -4.195067911547446e+04  -4.235231417603428e+03   7.392819897700127e+01   3.088992727928708e-01  -3.058637678968699e+00   5.339147166803619e-02
2017-01-01T00:23:10.000  -4.194757896874704e+04  -4.265816665937671e+03   7.446209408641043e+01   3.111300329309810e-01  -3.058411596787681e+00   5.338754338231527e-02
2017-01-01T00:23:20.000  -4.194445651524791e+04  -4.296399645284192e+03   7.499594977028082e+01   3.133606276686017e-01  -3.058183888241586e+00   5.338358667927748e-02
2017-01-01T00:23:30.000  -4.194131175666185e+04  -4.326980339139925e+03   7.552976574025995e+01   3.155910558022142e-01  -3.057954553453292e+00   5.337960156104839e-02
2017-01-01T00:23:40.000  -4.193814469469314e+04  -4.357558730930065e+03   7.606354170674277e+01   3.178213161230682e-01  -3.057723592547092e+00   5.337558802977829e-02
2017-01-01T00:23:50.000  -4.193495533099297e+04  -4.388134804709677e+03   7.659727739111918e+01   3.200514074683525e-01  -3.057491005643414e+00   5.337154608755038e-02
2017-01-01T00:24:00.000  -4.193174366723201e+04  -4.418708544460303e+03   7.713097251349551e+01   3.222813286698945e-01  -3.057256792864102e+00   5.336747573647261e-02
2017-01-01T00:24:10.000  -4.192850970508195e+04  -4.449279934271567e+03   7.766462679586438e+01   3.245110785674046e-01  -3.057020954331073e+00   5.336337697865425e-02
2017-01-01T00:24:20.000  -4.192525344626456e+04  -4.479848957852780e+03   7.819823995357963e+01   3.267406559728545e-01  -3.056783490169901e+00   5.335924981626814e-02
2017-01-01T00:24:30.000  -4.192197489251159e+04  -4.510415598936032e+03   7.873181170239242e+01   3.289700596998770e-01  -3.056544400506882e+00   5.335509425149988e-02
2017-01-01T00:24:40.000  -4.191867404557358e+04  -4.540979841186207e+03   7.926534175688083e+01   3.311992885572048e-01  -3.056303685469686e+00   5.335091028655897e-02
2017-01-01T00:24:50.000  -4.191535090721901e+04  -4.571541668225629e+03   7.979882983087946e+01   3.334283413504649e-01  -3.056061345187283e+00   5.334669792367762e-02
2017-01-01T00:25:00.000  -4.191200547922948e+04  -4.602101063664336e+03   8.033227563800857e+01   3.356572168843893e-01  -3.055817379789613e+00   5.334245716510491e-02
2017-01-01T00:25:10.000  -4.190863776339886e+04  -4.632658011111152e+03   8.086567889186679e+01   3.378859139636212e-01  -3.055571789407496e+00   5.333818801310544e-02
2017-01-01T00:25:20.000  -4.190524776152186e+04  -4.663212494283040e+03   8.139903930794044e+01   3.401144314006911e-01  -3.055324574171822e+00   5.333389046994506e-02
2017-01-01T00:25:30.000  -4.190183547540120e+04  -4.693764496932161e+03   8.193235660232989e+01   3.423427680106969e-01  -3.055075734214061e+00   5.332956453789976e-02
2017-01-01T00:25:40.000  -4.189840090684773e+04  -4.724314002845906e+03   8.246563049175047e+01   3.445709226113059e-01  -3.054825269666277e+00   5.332521021925597e-02
2017-01-01T00:25:50.000  -4.189494405767154e+04  -4.754860995919638e+03   8.299886069480191e+01   3.467988940280605e-01  -3.054573180660476e+00   5.332082751629919e-02
2017-01-01T00:26:00.000  -4.189146492969470e+04  -4.785405460047532e+03   8.353204693006310e+01   3.490266810864170e-01  -3.054319467329540e+00   5.331641643133019e-02
2017-01-01T00:26:10.000  -4.188796352475281e+04  -4.815947379111577e+03   8.406518891590009e+01   3.512542826109426e-01  -3.054064129807332e+00   5.331197696666697e-02
2017-01-01T00:26:20.000  -4.188443984469701e+04  -4.846486736951010e+03   8.459828636993242e+01   3.534816974230868e-01  -3.053807168228856e+00   5.330750912464734e-02
2017-01-01T00:26:30.000  -4.188089389139853e+04  -4.877023517338112e+03   8.513133900861060e+01   3.557089243394151e-01  -3.053548582730572e+00   5.330301290763464e-02
2017-01-01T00:26:40.000  -4.187732566673757e+04  -4.907557704067941e+03   8.566434654878260e+01   3.579359621781550e-01  -3.053288373449601e+00   5.329848831800364e-02
2017-01-01T00:26:50.000  -4.187373517265246e+04  -4.938089280556267e+03   8.619730870067524e+01   3.601628097298695e-01  -3.053026540527299e+00   5.329393535820296e-02
2017-01-01T00:27:00.000  -4.187012241108061e+04  -4.968618230326872e+03   8.673022517640071e+01   3.623894657930006e-01  -3.052763084104953e+00   5.328935403068000e-02
2017-01-01T00:27:10.000  -4.186648738398017e+04  -4.999144536830322e+03   8.726309568679292e+01   3.646159291606501e-01  -3.052498004325366e+00   5.328474433790868e-02
2017-01-01T00:27:20.000  -4.186283009324670e+04  -5.029668184146186e+03   8.779591995366552e+01   3.668421986717961e-01  -3.052231301326771e+00   5.328010628228355e-02
